start=new Date('2022-12-11T00:00:00.000Z').valueOf();
sats=[{"ELEMENT_SET_NO":"999","MEAN_MOTION_DDOT":"0.0000000000000","APOAPSIS":"541.307","COUNTRY_CODE":"US","EPOCH":"2022-12-10T09:48:06.344064","OBJECT_ID":"2022-049D","SITE":"AFETR","OBJECT_NAME":"STARLINK-3888","TLE_LINE2":"2 52454  53.2179 350.0679 0002216  35.5774 324.5365 15.08830512 33176","CENTER_NAME":"EARTH","EPHEMERIS_TYPE":"0","OBJECT_TYPE":"PAYLOAD","RCS_SIZE":"LARGE","RA_OF_ASC_NODE":"350.0679","MEAN_MOTION":"15.08830512","REF_FRAME":"TEME","TIME_SYSTEM":"UTC","LAUNCH_DATE":"2022-05-06","SEMIMAJOR_AXIS":"6917.909","GP_ID":"219935022","CLASSIFICATION_TYPE":"U","BSTAR":"-0.00014984000000","INCLINATION":"53.2179","DECAY_DATE":null,"ARG_OF_PERICENTER":"35.5774","PERIOD":"95.438","TLE_LINE1":"1 52454U 22049D   22344.40840676 -.00002672  00000-0 -14984-3 0  9995","ECCENTRICITY":"0.00022160","NORAD_CAT_ID":"52454","FILE":"3688140","MEAN_MOTION_DOT":"-0.00002672","MEAN_ELEMENT_THEORY":"SGP4","MEAN_ANOMALY":"324.5365","PERIAPSIS":"538.241","REV_AT_EPOCH":"3317"},{"GP_ID":"219933773","BSTAR":"0.00048204000000","CLASSIFICATION_TYPE":"U","INCLINATION":"53.2179","DECAY_DATE":null,"TIME_SYSTEM":"UTC","LAUNCH_DATE":"2022-05-06","SEMIMAJOR_AXIS":"6917.976","MEAN_MOTION":"15.08808718","RA_OF_ASC_NODE":"350.3932","REF_FRAME":"TEME","PERIAPSIS":"538.468","MEAN_ANOMALY":"333.0978","REV_AT_EPOCH":"3316","NORAD_CAT_ID":"52455","FILE":"3688140","MEAN_MOTION_DOT":"0.00007385","MEAN_ELEMENT_THEORY":"SGP4","ECCENTRICITY":"0.00019840","ARG_OF_PERICENTER":"27.0117","TLE_LINE1":"1 52455U 22049E   22344.33575899  .00007385  00000-0  48204-3 0  9996","PERIOD":"95.440","TLE_LINE2":"2 52455  53.2179 350.3932 0001984  27.0117 333.0978 15.08808718 33167","OBJECT_ID":"2022-049E","SITE":"AFETR","OBJECT_NAME":"STARLINK-3890","COUNTRY_CODE":"US","EPOCH":"2022-12-10T08:03:29.576736","ELEMENT_SET_NO":"999","MEAN_MOTION_DDOT":"0.0000000000000","APOAPSIS":"541.214","RCS_SIZE":"LARGE","OBJECT_TYPE":"PAYLOAD","EPHEMERIS_TYPE":"0","CENTER_NAME":"EARTH"},{"REF_FRAME":"TEME","RA_OF_ASC_NODE":"350.4128","MEAN_MOTION":"15.08826092","SEMIMAJOR_AXIS":"6917.923","LAUNCH_DATE":"2022-05-06","TIME_SYSTEM":"UTC","DECAY_DATE":null,"INCLINATION":"53.2177","CLASSIFICATION_TYPE":"U","BSTAR":"0.00008514500000","GP_ID":"219933524","PERIOD":"95.438","TLE_LINE1":"1 52456U 22049F   22344.33207386  .00001067  00000-0  85145-4 0  9997","ARG_OF_PERICENTER":"31.0809","ECCENTRICITY":"0.00023890","MEAN_ELEMENT_THEORY":"SGP4","NORAD_CAT_ID":"52456","FILE":"3688140","MEAN_MOTION_DOT":"0.00001067","REV_AT_EPOCH":"3316","MEAN_ANOMALY":"329.0325","PERIAPSIS":"538.135","APOAPSIS":"541.441","MEAN_MOTION_DDOT":"0.0000000000000","ELEMENT_SET_NO":"999","EPOCH":"2022-12-10T07:58:11.181504","COUNTRY_CODE":"US","SITE":"AFETR","OBJECT_NAME":"STARLINK-3896","OBJECT_ID":"2022-049F","TLE_LINE2":"2 52456  53.2177 350.4128 0002389  31.0809 329.0325 15.08826092 33163","CENTER_NAME":"EARTH","EPHEMERIS_TYPE":"0","OBJECT_TYPE":"PAYLOAD","RCS_SIZE":"LARGE"},{"RCS_SIZE":"LARGE","OBJECT_TYPE":"PAYLOAD","EPHEMERIS_TYPE":"0","CENTER_NAME":"EARTH","TLE_LINE2":"2 52457  53.2188 350.1297 0001760  17.5532 342.5520 15.08833045 33178","OBJECT_ID":"2022-049G","OBJECT_NAME":"STARLINK-3899","SITE":"AFETR","COUNTRY_CODE":"US","EPOCH":"2022-12-10T09:28:14.555424","ELEMENT_SET_NO":"999","MEAN_MOTION_DDOT":"0.0000000000000","APOAPSIS":"540.984","MEAN_ANOMALY":"342.5520","PERIAPSIS":"538.549","REV_AT_EPOCH":"3317","NORAD_CAT_ID":"52457","FILE":"3688140","MEAN_MOTION_DOT":"-0.00004759","MEAN_ELEMENT_THEORY":"SGP4","ECCENTRICITY":"0.00017600","ARG_OF_PERICENTER":"17.5532","TLE_LINE1":"1 52457U 22049G   22344.39461291 -.00004759  00000-0 -28116-3 0  9998","PERIOD":"95.438","GP_ID":"219934775","BSTAR":"-0.00028116000000","CLASSIFICATION_TYPE":"U","INCLINATION":"53.2188","DECAY_DATE":null,"TIME_SYSTEM":"UTC","LAUNCH_DATE":"2022-05-06","SEMIMAJOR_AXIS":"6917.902","RA_OF_ASC_NODE":"350.1297","MEAN_MOTION":"15.08833045","REF_FRAME":"TEME"},{"REF_FRAME":"TEME","RA_OF_ASC_NODE":"349.8427","MEAN_MOTION":"15.08829316","TIME_SYSTEM":"UTC","SEMIMAJOR_AXIS":"6917.913","LAUNCH_DATE":"2022-05-06","BSTAR":"-0.00018394000000","CLASSIFICATION_TYPE":"U","GP_ID":"219934523","DECAY_DATE":null,"INCLINATION":"53.2173","ARG_OF_PERICENTER":"23.8152","TLE_LINE1":"1 52458U 22049H   22344.45719114 -.00003214  00000-0 -18394-3 0  9998","PERIOD":"95.438","ECCENTRICITY":"0.00026400","MEAN_ELEMENT_THEORY":"SGP4","FILE":"3688140","MEAN_MOTION_DOT":"-0.00003214","NORAD_CAT_ID":"52458","MEAN_ANOMALY":"336.2962","PERIAPSIS":"537.952","REV_AT_EPOCH":"3318","ELEMENT_SET_NO":"999","APOAPSIS":"541.604","MEAN_MOTION_DDOT":"0.0000000000000","COUNTRY_CODE":"US","EPOCH":"2022-12-10T10:58:21.314496","SITE":"AFETR","OBJECT_NAME":"STARLINK-3898","OBJECT_ID":"2022-049H","TLE_LINE2":"2 52458  53.2173 349.8427 0002640  23.8152 336.2962 15.08829316 33186","CENTER_NAME":"EARTH","EPHEMERIS_TYPE":"0","OBJECT_TYPE":"PAYLOAD","RCS_SIZE":"LARGE"},{"TLE_LINE2":"2 52459  53.2193 340.4965 0002415  31.4130 328.7006 15.08825696 33298","OBJECT_NAME":"STARLINK-3856","SITE":"AFETR","OBJECT_ID":"2022-049J","COUNTRY_CODE":"US","EPOCH":"2022-12-10T07:26:21.333696","ELEMENT_SET_NO":"999","APOAPSIS":"541.460","MEAN_MOTION_DDOT":"0.0000000000000","RCS_SIZE":"LARGE","OBJECT_TYPE":"PAYLOAD","EPHEMERIS_TYPE":"0","CENTER_NAME":"EARTH","BSTAR":"-0.00016429000000","CLASSIFICATION_TYPE":"U","GP_ID":"219933274","DECAY_DATE":null,"INCLINATION":"53.2193","TIME_SYSTEM":"UTC","SEMIMAJOR_AXIS":"6917.924","LAUNCH_DATE":"2022-05-06","REF_FRAME":"TEME","MEAN_MOTION":"15.08825696","RA_OF_ASC_NODE":"340.4965","PERIAPSIS":"538.118","MEAN_ANOMALY":"328.7006","REV_AT_EPOCH":"3329","MEAN_ELEMENT_THEORY":"SGP4","NORAD_CAT_ID":"52459","FILE":"3688140","MEAN_MOTION_DOT":"-0.00002901","ECCENTRICITY":"0.00024150","ARG_OF_PERICENTER":"31.4130","TLE_LINE1":"1 52459U 22049J   22344.30996914 -.00002901  00000-0 -16429-3 0  9997","PERIOD":"95.438"},{"OBJECT_TYPE":"PAYLOAD","RCS_SIZE":"LARGE","CENTER_NAME":"EARTH","EPHEMERIS_TYPE":"0","OBJECT_ID":"2022-049K","SITE":"AFETR","OBJECT_NAME":"STARLINK-3865","TLE_LINE2":"2 52460  53.2172 339.6135 0002299  28.5805 331.5312 15.08838104 33483","MEAN_MOTION_DDOT":"0.0000000000000","APOAPSIS":"541.342","ELEMENT_SET_NO":"999","EPOCH":"2022-12-10T12:08:33.524448","COUNTRY_CODE":"US","NORAD_CAT_ID":"52460","FILE":"3688839","MEAN_MOTION_DOT":"0.00000166","MEAN_ELEMENT_THEORY":"SGP4","REV_AT_EPOCH":"3348","PERIAPSIS":"538.161","MEAN_ANOMALY":"331.5312","TLE_LINE1":"1 52460U 22049K   22344.50594357  .00000166  00000-0  28520-4 0  9991","PERIOD":"95.438","ARG_OF_PERICENTER":"28.5805","ECCENTRICITY":"0.00022990","INCLINATION":"53.2172","DECAY_DATE":null,"GP_ID":"219951265","CLASSIFICATION_TYPE":"U","BSTAR":"0.00002852000000","MEAN_MOTION":"15.08838104","RA_OF_ASC_NODE":"339.6135","REF_FRAME":"TEME","LAUNCH_DATE":"2022-05-06","SEMIMAJOR_AXIS":"6917.886","TIME_SYSTEM":"UTC"},{"LAUNCH_DATE":"2022-05-06","SEMIMAJOR_AXIS":"6917.971","TIME_SYSTEM":"UTC","RA_OF_ASC_NODE":"329.9208","MEAN_MOTION":"15.08810281","REF_FRAME":"TEME","INCLINATION":"53.2181","DECAY_DATE":null,"GP_ID":"219934276","CLASSIFICATION_TYPE":"U","BSTAR":"-0.00015535000000","ECCENTRICITY":"0.00024260","PERIOD":"95.439","TLE_LINE1":"1 52461U 22049L   22344.43969115 -.00002758  00000-0 -15535-3 0  9994","ARG_OF_PERICENTER":"8.6167","REV_AT_EPOCH":"3345","MEAN_ANOMALY":"351.4866","PERIAPSIS":"538.158","FILE":"3688140","MEAN_MOTION_DOT":"-0.00002758","NORAD_CAT_ID":"52461","MEAN_ELEMENT_THEORY":"SGP4","EPOCH":"2022-12-10T10:33:09.315360","COUNTRY_CODE":"US","MEAN_MOTION_DDOT":"0.0000000000000","APOAPSIS":"541.515","ELEMENT_SET_NO":"999","TLE_LINE2":"2 52461  53.2181 329.9208 0002426   8.6167 351.4866 15.08810281 33457","OBJECT_ID":"2022-049L","SITE":"AFETR","OBJECT_NAME":"STARLINK-3900","EPHEMERIS_TYPE":"0","CENTER_NAME":"EARTH","RCS_SIZE":"LARGE","OBJECT_TYPE":"PAYLOAD"},{"TLE_LINE1":"1 52462U 22049M   22344.30263161 -.00007807  00000-0 -47335-3 0  9992","PERIOD":"95.440","ARG_OF_PERICENTER":"29.1648","ECCENTRICITY":"0.00024800","MEAN_MOTION_DOT":"-0.00007807","FILE":"3688140","NORAD_CAT_ID":"52462","MEAN_ELEMENT_THEORY":"SGP4","REV_AT_EPOCH":"3329","PERIAPSIS":"538.138","MEAN_ANOMALY":"330.9482","MEAN_MOTION":"15.08804459","RA_OF_ASC_NODE":"340.5309","REF_FRAME":"TEME","LAUNCH_DATE":"2022-05-06","SEMIMAJOR_AXIS":"6917.989","TIME_SYSTEM":"UTC","INCLINATION":"53.2189","DECAY_DATE":null,"GP_ID":"219935023","BSTAR":"-0.00047335000000","CLASSIFICATION_TYPE":"U","CENTER_NAME":"EARTH","EPHEMERIS_TYPE":"0","OBJECT_TYPE":"PAYLOAD","RCS_SIZE":"LARGE","MEAN_MOTION_DDOT":"0.0000000000000","APOAPSIS":"541.570","ELEMENT_SET_NO":"999","EPOCH":"2022-12-10T07:15:47.371104","COUNTRY_CODE":"US","OBJECT_ID":"2022-049M","OBJECT_NAME":"STARLINK-3903","SITE":"AFETR","TLE_LINE2":"2 52462  53.2189 340.5309 0002480  29.1648 330.9482 15.08804459 33297"},{"RCS_SIZE":"LARGE","OBJECT_TYPE":"PAYLOAD","EPHEMERIS_TYPE":"0","CENTER_NAME":"EARTH","TLE_LINE2":"2 52463  53.2181 329.9280 0001994  23.9094 336.1990 15.08828163 33453","OBJECT_ID":"2022-049N","OBJECT_NAME":"STARLINK-3885","SITE":"AFETR","EPOCH":"2022-12-10T10:27:51.343488","COUNTRY_CODE":"US","MEAN_MOTION_DDOT":"0.0000000000000","APOAPSIS":"541.161","ELEMENT_SET_NO":"999","REV_AT_EPOCH":"3345","MEAN_ANOMALY":"336.1990","PERIAPSIS":"538.402","NORAD_CAT_ID":"52463","FILE":"3688140","MEAN_MOTION_DOT":"-0.00011506","MEAN_ELEMENT_THEORY":"SGP4","ECCENTRICITY":"0.00019940","PERIOD":"95.438","TLE_LINE1":"1 52463U 22049N   22344.43601092 -.00011506  00000-0 -70615-3 0  9994","ARG_OF_PERICENTER":"23.9094","INCLINATION":"53.2181","DECAY_DATE":null,"GP_ID":"219933774","CLASSIFICATION_TYPE":"U","BSTAR":"-0.00070615000000","LAUNCH_DATE":"2022-05-06","SEMIMAJOR_AXIS":"6917.917","TIME_SYSTEM":"UTC","RA_OF_ASC_NODE":"329.9280","MEAN_MOTION":"15.08828163","REF_FRAME":"TEME"}];
